STARLINK-5572           
1 55378U 23013AZ  26067.70295535 -.00001211  00000+0 -74621-4 0  9994
2 55378  43.0037 318.4570 0001297 264.7105  95.3589 15.02524140171416
LEMUR-2-ARIANNA         
1 62699U 25009CU  26068.74082662  .00009084  00000+0  71790-3 0  9992
2 62699  97.6996 151.0445 0004640 147.3928 212.7583 15.00881954 62634
